[{"OBJECT_NAME":"STARLINK-31725","OBJECT_ID":"2024-074E","EPOCH":"2026-03-09T22:00:01.999584","MEAN_MOTION":15.54053512,"ECCENTRICITY":0.00145121,"INCLINATION":42.9967,"RA_OF_ASC_NODE":323.6611,"ARG_OF_PERICENTER":238.6665,"MEAN_ANOMALY":359.4797,"EPHEMERIS_TYPE":0,"CLASSIFICATION_TYPE":"U","NORAD_CAT_ID":59538,"ELEMENT_SET_NO":999,"REV_AT_EPOCH":589,"BSTAR":0.0045341754,"MEAN_MOTION_DOT":0.00314571,"MEAN_MOTION_DDOT":0},{"OBJECT_NAME":"AIST-2T 1","OBJECT_ID":"2025-313F","EPOCH":"2026-03-09T22:19:59.484576","MEAN_MOTION":15.60511004,"ECCENTRICITY":0.00116581,"INCLINATION":97.0916,"RA_OF_ASC_NODE":146.6086,"ARG_OF_PERICENTER":239.8549,"MEAN_ANOMALY":120.1554,"EPHEMERIS_TYPE":0,"CLASSIFICATION_TYPE":"U","NORAD_CAT_ID":67253,"ELEMENT_SET_NO":999,"REV_AT_EPOCH":1114,"BSTAR":0.00050199442,"MEAN_MOTION_DOT":0.00041507,"MEAN_MOTION_DDOT":0}]
